[{"OBJECT_NAME":"ASTROCAST-0402","OBJECT_ID":"2023-001DE","EPOCH":"2026-03-09T19:21:31.190400","MEAN_MOTION":15.26734153,"ECCENTRICITY":0.00042092,"INCLINATION":97.5556,"RA_OF_ASC_NODE":160.6821,"ARG_OF_PERICENTER":216.6984,"MEAN_ANOMALY":143.3966,"EPHEMERIS_TYPE":0,"CLASSIFICATION_TYPE":"U","NORAD_CAT_ID":55109,"ELEMENT_SET_NO":999,"REV_AT_EPOCH":12936,"BSTAR":0.00041835119,"MEAN_MOTION_DOT":0.0001093,"MEAN_MOTION_DDOT":0},{"OBJECT_NAME":"STARLINK-31207","OBJECT_ID":"2024-038N","EPOCH":"2026-03-09T04:48:23.080032","MEAN_MOTION":15.27575191,"ECCENTRICITY":0.00010107,"INCLINATION":43.0042,"RA_OF_ASC_NODE":26.3087,"ARG_OF_PERICENTER":270.6163,"MEAN_ANOMALY":89.4573,"EPHEMERIS_TYPE":0,"CLASSIFICATION_TYPE":"U","NORAD_CAT_ID":59035,"ELEMENT_SET_NO":999,"REV_AT_EPOCH":11478,"BSTAR":-1.3000433e-5,"MEAN_MOTION_DOT":-6.2e-6,"MEAN_MOTION_DDOT":0}]
